{
  "norad_id": 53638,
  "name": "STARLINK-4594",
  "history": [
    {
      "epoch": "2026-03-28T20:29:35.408256Z",
      "apogee_km": 540.6163745455824,
      "perigee_km": 538.8603410647565,
      "latitude_deg": 5.6326775607384046e-05,
      "longitude_deg": 4.056047029926266,
      "height_km": 540.5830489331194,
      "semi_major_axis_km": 6917.875357805169,
      "eccentricity": 0.00012692,
      "inclination_deg": 53.2165,
      "raan_deg": 137.7219,
      "arg_perigee_deg": 86.6674,
      "mean_anomaly_deg": 273.4464,
      "mean_motion_rev_day": 15.08841646
    },
    {
      "epoch": "2026-03-29T09:12:41.142528Z",
      "apogee_km": 540.6648361760208,
      "perigee_km": 538.8515174922695,
      "latitude_deg": -1.7675657585666928e-05,
      "longitude_deg": 170.38117898512368,
      "height_km": 540.6255091493878,
      "semi_major_axis_km": 6917.895176834145,
      "eccentricity": 0.00013106,
      "inclination_deg": 53.2164,
      "raan_deg": 135.3433,
      "arg_perigee_deg": 88.2089,
      "mean_anomaly_deg": 271.9053,
      "mean_motion_rev_day": 15.08835162
    },
    {
      "epoch": "2026-03-30T12:14:13.733088Z",
      "apogee_km": 540.6299800337183,
      "perigee_km": 538.8300893886271,
      "latitude_deg": -6.558196489312422e-06,
      "longitude_deg": 118.82888728868198,
      "height_km": 540.6614681221355,
      "semi_major_axis_km": 6917.867034711172,
      "eccentricity": 0.00013009,
      "inclination_deg": 53.2162,
      "raan_deg": 130.2867,
      "arg_perigee_deg": 92.2779,
      "mean_anomaly_deg": 267.8362,
      "mean_motion_rev_day": 15.08844369
    },
    {
      "epoch": "2026-03-30T20:11:09.332736Z",
      "apogee_km": 540.6288886831553,
      "perigee_km": 538.8327334846854,
      "latitude_deg": 3.3933856643370363e-05,
      "longitude_deg": -2.2164921203189953,
      "height_km": 540.6853095170943,
      "semi_major_axis_km": 6917.86781108392,
      "eccentricity": 0.00012982,
      "inclination_deg": 53.2164,
      "raan_deg": 128.7994,
      "arg_perigee_deg": 93.7549,
      "mean_anomaly_deg": 266.3592,
      "mean_motion_rev_day": 15.08844115
    },
    {
      "epoch": "2026-03-31T12:05:01.272480Z",
      "apogee_km": 540.7015500112084,
      "perigee_km": 538.8063246100228,
      "latitude_deg": -5.08979162722996e-06,
      "longitude_deg": 115.6916663079916,
      "height_km": 540.6656910128595,
      "semi_major_axis_km": 6917.890937310615,
      "eccentricity": 0.00013698,
      "inclination_deg": 53.2162,
      "raan_deg": 125.8269,
      "arg_perigee_deg": 90.9789,
      "mean_anomaly_deg": 269.136,
      "mean_motion_rev_day": 15.08836549
    },
    {
      "epoch": "2026-04-01T08:45:02.422368Z",
      "apogee_km": 540.765637636071,
      "perigee_km": 538.7539132537713,
      "latitude_deg": -2.360429935401614e-05,
      "longitude_deg": 160.97189952969973,
      "height_km": 540.7304259353031,
      "semi_major_axis_km": 6917.89677544492,
      "eccentricity": 0.0001454,
      "inclination_deg": 53.2169,
      "raan_deg": 121.9607,
      "arg_perigee_deg": 94.2831,
      "mean_anomaly_deg": 265.8327,
      "mean_motion_rev_day": 15.08834639
    },
    {
      "epoch": "2026-04-02T18:08:05.782272Z",
      "apogee_km": 540.5534131428385,
      "perigee_km": 538.8156563733073,
      "latitude_deg": 2.3459922847917225e-05,
      "longitude_deg": 12.592193121922824,
      "height_km": 540.5214913265187,
      "semi_major_axis_km": 6917.821534758073,
      "eccentricity": 0.0001256,
      "inclination_deg": 53.2164,
      "raan_deg": 115.716,
      "arg_perigee_deg": 86.1199,
      "mean_anomaly_deg": 273.9937,
      "mean_motion_rev_day": 15.08859255
    },
    {
      "epoch": "2026-04-02T18:08:05.783136Z",
      "apogee_km": 540.5535514992689,
      "perigee_km": 538.815518016876,
      "latitude_deg": 2.161758110132723e-05,
      "longitude_deg": 12.59218814219576,
      "height_km": 540.5214819642034,
      "semi_major_axis_km": 6917.821534758073,
      "eccentricity": 0.00012562,
      "inclination_deg": 53.2164,
      "raan_deg": 115.716,
      "arg_perigee_deg": 86.1199,
      "mean_anomaly_deg": 273.9937,
      "mean_motion_rev_day": 15.08859255
    },
    {
      "epoch": "2026-04-03T11:37:22.649952Z",
      "apogee_km": 540.7343488137913,
      "perigee_km": 538.8017628573934,
      "latitude_deg": 2.5874285161018174e-05,
      "longitude_deg": 106.28240563983735,
      "height_km": 540.740924999033,
      "semi_major_axis_km": 6917.905055835592,
      "eccentricity": 0.00013968,
      "inclination_deg": 53.2161,
      "raan_deg": 112.4447,
      "arg_perigee_deg": 94.5916,
      "mean_anomaly_deg": 265.5236,
      "mean_motion_rev_day": 15.0883193
    },
    {
      "epoch": "2026-04-04T09:52:47.820576Z",
      "apogee_km": 540.7042999398018,
      "perigee_km": 538.8704965403167,
      "latitude_deg": 3.077433142603252e-05,
      "longitude_deg": 127.34906907836924,
      "height_km": 540.523155394117,
      "semi_major_axis_km": 6917.9243982400585,
      "eccentricity": 0.00013254,
      "inclination_deg": 53.2159,
      "raan_deg": 108.2803,
      "arg_perigee_deg": 79.9594,
      "mean_anomaly_deg": 280.1548,
      "mean_motion_rev_day": 15.08825602
    },
    {
      "epoch": "2026-04-05T09:43:35.139648Z",
      "apogee_km": 540.7589029763003,
      "perigee_km": 538.8285235900657,
      "latitude_deg": 1.3408598417814799e-05,
      "longitude_deg": 124.2122520482847,
      "height_km": 540.7330163244726,
      "semi_major_axis_km": 6917.930713283183,
      "eccentricity": 0.00013952,
      "inclination_deg": 53.2162,
      "raan_deg": 103.82,
      "arg_perigee_deg": 92.5998,
      "mean_anomaly_deg": 267.5154,
      "mean_motion_rev_day": 15.08823536
    },
    {
      "epoch": "2026-04-05T17:40:30.726336Z",
      "apogee_km": 540.7208247473627,
      "perigee_km": 538.8405347220105,
      "latitude_deg": -3.495167812160875e-05,
      "longitude_deg": 3.1669597450379543,
      "height_km": 540.74588289597,
      "semi_major_axis_km": 6917.917679734686,
      "eccentricity": 0.0001359,
      "inclination_deg": 53.2164,
      "raan_deg": 102.3328,
      "arg_perigee_deg": 94.2454,
      "mean_anomaly_deg": 265.8693,
      "mean_motion_rev_day": 15.088278
    },
    {
      "epoch": "2026-04-06T06:23:35.956032Z",
      "apogee_km": 540.7374045033912,
      "perigee_km": 538.8192049476966,
      "latitude_deg": 2.2983725660641938e-06,
      "longitude_deg": 169.49498130679,
      "height_km": 540.6857332693689,
      "semi_major_axis_km": 6917.915304725543,
      "eccentricity": 0.00013864,
      "inclination_deg": 53.2162,
      "raan_deg": 99.9549,
      "arg_perigee_deg": 90.7104,
      "mean_anomaly_deg": 269.4047,
      "mean_motion_rev_day": 15.08828577
    },
    {
      "epoch": "2026-04-07T06:14:22.814592Z",
      "apogee_km": 540.6703552380159,
      "perigee_km": 538.7850987426154,
      "latitude_deg": -9.68667828269696e-06,
      "longitude_deg": 166.35989103384244,
      "height_km": 540.6657308352723,
      "semi_major_axis_km": 6917.864726990315,
      "eccentricity": 0.00013626,
      "inclination_deg": 53.2167,
      "raan_deg": 95.4944,
      "arg_perigee_deg": 92.5763,
      "mean_anomaly_deg": 267.5385,
      "mean_motion_rev_day": 15.08845124
    },
    {
      "epoch": "2026-04-07T17:22:04.440000Z",
      "apogee_km": 540.672509266371,
      "perigee_km": 538.7534976754077,
      "latitude_deg": -3.244113492705978e-06,
      "longitude_deg": -3.1013648724370744,
      "height_km": 540.5934723733243,
      "semi_major_axis_km": 6917.8500034708895,
      "eccentricity": 0.0001387,
      "inclination_deg": 53.2166,
      "raan_deg": 93.4136,
      "arg_perigee_deg": 89.0971,
      "mean_anomaly_deg": 271.018,
      "mean_motion_rev_day": 15.08849941
    },
    {
      "epoch": "2026-04-08T09:15:55.264320Z",
      "apogee_km": 540.6862930861162,
      "perigee_km": 538.7198278705246,
      "latitude_deg": 2.2456578449360416e-06,
      "longitude_deg": 114.81018408553001,
      "height_km": 540.5824311897461,
      "semi_major_axis_km": 6917.84006047832,
      "eccentricity": 0.00014213,
      "inclination_deg": 53.2168,
      "raan_deg": 90.4398,
      "arg_perigee_deg": 89.0564,
      "mean_anomaly_deg": 271.0591,
      "mean_motion_rev_day": 15.08853194
    },
    {
      "epoch": "2026-04-09T15:28:15.168000Z",
      "apogee_km": 540.6946184106091,
      "perigee_km": 538.7742173050119,
      "latitude_deg": -7.632428882977507e-06,
      "longitude_deg": 14.835743981284862,
      "height_km": 540.6003889757189,
      "semi_major_axis_km": 6917.87141785781,
      "eccentricity": 0.0001388,
      "inclination_deg": 53.2168,
      "raan_deg": 84.7888,
      "arg_perigee_deg": 88.2313,
      "mean_anomaly_deg": 271.8838,
      "mean_motion_rev_day": 15.08842935
    },
    {
      "epoch": "2026-04-10T04:11:20.114304Z",
      "apogee_km": 540.6785578595891,
      "perigee_km": 538.7941291608158,
      "latitude_deg": 8.162069524162465e-07,
      "longitude_deg": -178.8368721564955,
      "height_km": 540.5844689784778,
      "semi_major_axis_km": 6917.873343510202,
      "eccentricity": 0.0001362,
      "inclination_deg": 53.217,
      "raan_deg": 82.4091,
      "arg_perigee_deg": 87.1079,
      "mean_anomaly_deg": 273.0069,
      "mean_motion_rev_day": 15.08842305
    },
    {
      "epoch": "2026-04-11T15:09:49.535712Z",
      "apogee_km": 540.7387529757088,
      "perigee_km": 538.7851383134594,
      "latitude_deg": 1.6554873934775717e-05,
      "longitude_deg": 8.564581782645604,
      "height_km": 540.6999703742018,
      "semi_major_axis_km": 6917.898945644583,
      "eccentricity": 0.0001412,
      "inclination_deg": 53.2177,
      "raan_deg": 75.8695,
      "arg_perigee_deg": 92.4856,
      "mean_anomaly_deg": 267.6298,
      "mean_motion_rev_day": 15.08833929
    }
  ]
}